     2              NAVIGATION DATA                         RINEX VERSION / TYPE
CCRINEXN V1.6.0 UX  CDDIS               11-APR-22 19:31     PGM / RUN BY / DATE 
IGS BROADCAST EPHEMERIS FILE                                COMMENT             
    0.1676D-07  0.1490D-07 -0.1192D-06 -0.5960D-07          ION ALPHA           
    0.1085D+06  0.3277D+05 -0.2621D+06 -0.6554D+05          ION BETA            
   -0.931322574615D-09-0.621724893790D-14   233472     2205 DELTA-UTC: A0,A1,T,W
    18                                                      LEAP SECONDS        
                                                            END OF HEADER       
28 22  4 10 16  0  0.0 0.372576992959D-03-0.295585778076D-11 0.000000000000D+00
    0.880000000000D+02 0.192812500000D+02 0.454197490577D-08 0.140517770039D+01
    0.717118382454D-06 0.166399608133D-01 0.695511698723D-05 0.515368717194D+04
    0.576000000000D+05 0.182539224625D-06 0.135807797904D+01-0.366941094399D-06
    0.968561452221D+00 0.249562500000D+03-0.128223803098D+01-0.796783189218D-08
   -0.278225874939D-09 0.100000000000D+01 0.220500000000D+04 0.000000000000D+00
    0.200000000000D+01 0.630000000000D+02-0.111758708954D-07 0.880000000000D+02
    0.549790000000D+05 0.400000000000D+01 0.000000000000D+00 0.000000000000D+00
29 22  4 10 16  0  0.0-0.501525588334D-03-0.432009983342D-11 0.000000000000D+00
    0.122000000000D+03 0.594687500000D+02 0.387587573150D-08 0.109389721175D+01
    0.282935798168D-05 0.202594057191D-02 0.768341124058D-05 0.515373146248D+04
    0.576000000000D+05 0.745058059692D-08 0.238728386930D+01-0.279396772385D-07
    0.981340569757D+00 0.239531250000D+03 0.223579043964D+01-0.778568144774D-08
   -0.212508851847D-09 0.100000000000D+01 0.220500000000D+04 0.000000000000D+00
    0.280000000000D+01 0.000000000000D+00-0.102445483208D-07 0.122000000000D+03
    0.504180000000D+05 0.400000000000D+01 0.000000000000D+00 0.000000000000D+00
30 22  4 10 16  0  0.0-0.523124821484D-03-0.181898940355D-11 0.000000000000D+00
    0.170000000000D+02 0.251875000000D+02 0.531986445085D-08-0.189519399871D+01
    0.996515154839D-06 0.567941321060D-02 0.707618892193D-05 0.515378207016D+04
    0.576000000000D+05 0.115483999252D-06 0.235319086190D+00-0.353902578354D-07
    0.936405611681D+00 0.229062500000D+03-0.272098220968D+01-0.833356141200D-08
    0.294297972978D-09 0.100000000000D+01 0.220500000000D+04 0.000000000000D+00
    0.200000000000D+01 0.000000000000D+00 0.372529029846D-08 0.170000000000D+02
    0.504810000000D+05 0.400000000000D+01 0.000000000000D+00 0.000000000000D+00
31 22  4 10 16  0  0.0-0.172825995833D-03-0.170530256582D-11 0.000000000000D+00
    0.250000000000D+02 0.284062500000D+02 0.489627537809D-08-0.238538656403D+01
    0.120513141155D-05 0.104265966220D-01 0.752322375774D-05 0.515371246910D+04
    0.576000000000D+05 0.372529029846D-08 0.241305779994D+00-0.244006514549D-06
    0.955461546008D+00 0.233375000000D+03 0.384422951822D+00-0.800247619240D-08
    0.286797660560D-09 0.100000000000D+01 0.220500000000D+04 0.000000000000D+00
    0.200000000000D+01 0.000000000000D+00-0.135041773319D-07 0.250000000000D+02
    0.504180000000D+05 0.400000000000D+01 0.000000000000D+00 0.000000000000D+00
32 22  4 10 16  0  0.0-0.102574937046D-03-0.795807864051D-11 0.000000000000D+00
    0.180000000000D+02-0.536250000000D+02 0.438946855327D-08 0.159682302920D+01
   -0.268593430519D-05 0.585858931299D-02 0.966340303421D-05 0.515359074974D+04
    0.576000000000D+05-0.147148966789D-06-0.837048784430D+00 0.540167093277D-07
    0.958107109007D+00 0.188343750000D+03-0.230349222855D+01-0.793318759196D-08
    0.256439253153D-09 0.100000000000D+01 0.220500000000D+04 0.000000000000D+00
    0.200000000000D+01 0.000000000000D+00 0.465661287308D-09 0.180000000000D+02
    0.504180000000D+05 0.400000000000D+01 0.000000000000D+00 0.000000000000D+00
 4 22  4 10 16 44 32.0-0.177005771548D-03 0.306954461848D-11 0.000000000000D+00
    0.780000000000D+02-0.444062500000D+02 0.433482341994D-08 0.867946808006D+00
   -0.225193798542D-05 0.176831719000D-02 0.939890742302D-05 0.515363277626D+04
    0.602720000000D+05 0.186264514923D-07-0.795111093877D+00 0.763684511185D-07
    0.961286471794D+00 0.199687500000D+03-0.298971737597D+01-0.780639659632D-08
    0.228223792151D-09 0.100000000000D+01 0.220500000000D+04 0.000000000000D+00
    0.200000000000D+01 0.000000000000D+00-0.419095158577D-08 0.334000000000D+03
    0.531730000000D+05 0.400000000000D+01 0.000000000000D+00 0.000000000000D+00
19 22  4 10 17 59 44.0 0.142628327012D-03 0.500222085975D-11 0.000000000000D+00
    0.400000000000D+01 0.515000000000D+02 0.401516724783D-08-0.192987749544D+01
    0.283122062683D-05 0.912075140514D-02 0.812113285065D-05 0.515369639206D+04
    0.647840000000D+05-0.987201929092D-07 0.241892702874D+01 0.197440385819D-06
    0.978114377499D+00 0.233156250000D+03 0.203405750362D+01-0.774603693925D-08
   -0.142148778210D-09 0.100000000000D+01 0.220500000000D+04 0.000000000000D+00
    0.200000000000D+01 0.000000000000D+00-0.158324837685D-07 0.400000000000D+01
    0.610390000000D+05 0.400000000000D+01 0.000000000000D+00 0.000000000000D+00
20 22  4 10 17 59 44.0 0.515889376402D-03-0.227373675443D-12 0.000000000000D+00
    0.150000000000D+02-0.543437500000D+02 0.492091926175D-08 0.791439093426D+00
   -0.281631946564D-05 0.486973475199D-02 0.450573861599D-05 0.515354915428D+04
    0.647840000000D+05 0.987201929092D-07-0.203306926735D+01 0.132247805595D-06
    0.942269607620D+00 0.283750000000D+03-0.312624308220D+01-0.840785022071D-08
   -0.385730352932D-10 0.100000000000D+01 0.220500000000D+04 0.000000000000D+00
    0.200000000000D+01 0.000000000000D+00-0.838190317154D-08 0.150000000000D+02
    0.576720000000D+05 0.400000000000D+01 0.000000000000D+00 0.000000000000D+00
21 22  4 10 17 59 44.0 0.160317402333D-03 0.341060513165D-12 0.000000000000D+00
    0.900000000000D+01 0.491250000000D+02 0.450483050142D-08 0.216327480320D+01
    0.267848372459D-05 0.244167577475D-01 0.362470746040D-05 0.515377463913D+04
    0.647840000000D+05 0.307336449623D-06-0.300357180851D+01 0.596046447754D-07
    0.960130943525D+00 0.299000000000D+03-0.968341742406D+00-0.798497546342D-08
   -0.181436128972D-09 0.100000000000D+01 0.220500000000D+04 0.000000000000D+00
    0.200000000000D+01 0.000000000000D+00-0.102445483208D-07 0.900000000000D+01
    0.584230000000D+05 0.400000000000D+01 0.000000000000D+00 0.000000000000D+00
24 22  4 10 17 59 44.0 0.258299056441D-03-0.488853402203D-11 0.000000000000D+00
    0.600000000000D+01 0.252812500000D+02 0.538200989660D-08 0.906195402447D-01
    0.134855508804D-05 0.124010120053D-01 0.741891562939D-05 0.515368743897D+04
    0.647840000000D+05-0.130385160446D-07 0.139324271438D+00 0.182539224625D-06
    0.934759831768D+00 0.227187500000D+03 0.812305595149D+00-0.854964184119D-08
    0.214294640518D-09 0.100000000000D+01 0.220500000000D+04 0.000000000000D+00
    0.200000000000D+01 0.000000000000D+00 0.232830643654D-08 0.600000000000D+01
    0.576180000000D+05 0.400000000000D+01 0.000000000000D+00 0.000000000000D+00
29 22  4 10 17 59 44.0-0.501557253301D-03-0.432009983342D-11 0.000000000000D+00
    0.150000000000D+02 0.478437500000D+02 0.403266797681D-08 0.214246041209D+01
    0.261329114437D-05 0.202630914282D-02 0.752322375774D-05 0.515372855568D+04
    0.647840000000D+05 0.670552253723D-07 0.238722766253D+01-0.484287738800D-07
    0.981339017601D+00 0.242312500000D+03 0.223503566900D+01-0.781782564382D-08
   -0.177150236161D-09 0.100000000000D+01 0.220500000000D+04 0.000000000000D+00
    0.200000000000D+01 0.000000000000D+00-0.102445483208D-07 0.150000000000D+02
    0.576180000000D+05 0.400000000000D+01 0.000000000000D+00 0.000000000000D+00
 1 22  4 10 18  0  0.0 0.388117972761D-03-0.875388650456D-11 0.000000000000D+00
    0.220000000000D+02 0.289062500000D+02 0.409159900295D-08-0.203812185870D+00
    0.158324837685D-05 0.116995221470D-01 0.423751771450D-05 0.515366651344D+04
    0.648000000000D+05-0.633299350738D-07-0.291123699828D+01 0.139698386192D-06
    0.987630402131D+00 0.308343750000D+03 0.890526493592D+00-0.821605651745D-08
    0.232152527228D-10 0.100000000000D+01 0.220500000000D+04 0.000000000000D+00
    0.200000000000D+01 0.000000000000D+00 0.512227416039D-08 0.220000000000D+02
    0.606490000000D+05 0.400000000000D+01 0.000000000000D+00 0.000000000000D+00
 2 22  4 10 18  0  0.0-0.653031747788D-03-0.227373675443D-12 0.000000000000D+00
    0.470000000000D+02 0.235937500000D+02 0.450518765915D-08-0.621049408401D-01
    0.127591192722D-05 0.205266645644D-01 0.521354377270D-05 0.515364147758D+04
    0.648000000000D+05-0.307336449623D-06-0.300159236039D+01-0.540167093277D-07
    0.965860381722D+00 0.286250000000D+03-0.142545997261D+01-0.852678374620D-08
    0.517878714584D-10 0.100000000000D+01 0.220500000000D+04 0.000000000000D+00
    0.200000000000D+01 0.000000000000D+00-0.176951289177D-07 0.470000000000D+02
    0.576180000000D+05 0.400000000000D+01 0.000000000000D+00 0.000000000000D+00
 3 22  4 10 18  0  0.0-0.201154500246D-03-0.154614099301D-10 0.000000000000D+00
    0.760000000000D+02-0.825937500000D+02 0.421053252844D-08-0.132643908255D+01
   -0.433064997196D-05 0.402673706412D-02 0.515952706337D-05 0.515364900207D+04
    0.648000000000D+05 0.180676579475D-06-0.187687380100D+01 0.540167093277D-07
    0.972930282977D+00 0.287437500000D+03 0.941086637933D+00-0.801961976364D-08
   -0.162863926793D-09 0.100000000000D+01 0.220500000000D+04 0.000000000000D+00
    0.200000000000D+01 0.000000000000D+00 0.186264514923D-08 0.760000000000D+02
    0.576180000000D+05 0.400000000000D+01 0.000000000000D+00 0.000000000000D+00
